<?xml version="1.0" encoding="UTF-8"?>
<kml xmlns="http://www.opengis.net/kml/2.2" xmlns:gx="http://www.google.com/kml/ext/2.2">
    <Document id="1">
        <Placemark id="3">
            <name>PUERTO_PATINO</name>
            <Point id="2">
                <coordinates>-65.69112,-16.68094,0.0</coordinates>
            </Point>
        </Placemark>
        <Placemark id="5">
            <name>FLORIDA_CHAPARE</name>
            <Point id="4">
                <coordinates>-65.60127,-16.74916,0.0</coordinates>
            </Point>
        </Placemark>
        <Placemark id="7">
            <name>LIMO_DEL_ISIBORO</name>
            <Point id="6">
                <coordinates>-65.68718,-16.68775,0.0</coordinates>
            </Point>
        </Placemark>
        <Placemark id="9">
            <name>ISINUTA</name>
            <Point id="8">
                <coordinates>-65.63725,-16.73261,0.0</coordinates>
            </Point>
        </Placemark>
        <Placemark id="11">
            <name>ISINUTA_4G</name>
            <Point id="10">
                <coordinates>-65.63725,-16.73261,0.0</coordinates>
            </Point>
        </Placemark>
        <Placemark id="13">
            <name>LIMO_DEL_ISIBORO_4G</name>
            <Point id="12">
                <coordinates>-65.68718,-16.68775,0.0</coordinates>
            </Point>
        </Placemark>
        <Placemark id="15">
            <name>PUERTO_PATINO_4G</name>
            <Point id="14">
                <coordinates>-65.69112,-16.68094,0.0</coordinates>
            </Point>
        </Placemark>
        <Placemark id="17">
            <name>FLORIDA_CHAPARE_4G</name>
            <Point id="16">
                <coordinates>-65.60127,-16.74916,0.0</coordinates>
            </Point>
        </Placemark>
        <Placemark id="19">
            <name>LIMO_DEL_ISIBORO_LTE</name>
            <Point id="18">
                <coordinates>-65.68718,-16.68775,0.0</coordinates>
            </Point>
        </Placemark>
        <Placemark id="21">
            <name>ISINUTA_LTE</name>
            <Point id="20">
                <coordinates>-65.63725,-16.73261,0.0</coordinates>
            </Point>
        </Placemark>
        <Placemark id="23">
            <name>FLORIDA_CHAPARE_LTE</name>
            <Point id="22">
                <coordinates>-65.60127,-16.74916,0.0</coordinates>
            </Point>
        </Placemark>
        <Placemark id="25">
            <name>PUERTO_PATINO_LTE</name>
            <Point id="24">
                <coordinates>-65.69112,-16.68094,0.0</coordinates>
            </Point>
        </Placemark>
    </Document>
</kml>
